*******************************************************************************
Ephemeris / WWW_USER Tue Jun  9 12:21:56 2020 Pasadena, USA      / Horizons
*******************************************************************************
Target body name: Pluto (999)                     {source: plu055l_merged}
Center body name: Solar System Barycenter (0)     {source: DE431mx}
Center-site name: BODY CENTER
*******************************************************************************
Start time      : A.D. 2000-Jul-09 00:00:00.0000 TDB
Stop  time      : A.D. 2024-Jul-09 00:00:00.0000 TDB
Step-size       : 1440 minutes
*******************************************************************************
Center geodetic : 0.00000000,0.00000000,0.0000000 {E-lon(deg),Lat(deg),Alt(km)}
Center cylindric: 0.00000000,0.00000000,0.0000000 {E-lon(deg),Dxy(km),Dz(km)}
Center radii    : (undefined)                                                  
Output units    : AU-D
Output type     : GEOMETRIC cartesian states
Output format   : 3 (position, velocity, LT, range, range-rate)
Reference frame : Ecliptic of J2000.0
*******************************************************************************
            JDTDB,            Calendar Date (TDB),                      X,                      Y,                      Z,                     VX,                     VY,                     VZ,                     LT,                     RG,                     RR,
**************************************************************************************************************************************************************************************************************************************************************************
$$SOE
2460284.500000000, A.D. 2023-Dec-06 00:00:00.0000,  1.712885462557133E+01, -3.036383225602450E+01, -1.705581539747912E+00,  2.808720658921809E-03,  8.433426897927723E-04, -9.118689440022459E-04,  2.015870174928786E-01,  3.490371009570013E+01,  6.892768320300078E-04,
2460285.500000000, A.D. 2023-Dec-07 00:00:00.0000,  1.713166062230642E+01, -3.036298789862748E+01, -1.706487302195678E+00,  2.804764916288463E-03,  8.470009504514167E-04, -8.996462450503874E-04,  2.015909846210668E-01,  3.490439698265303E+01,  6.838117263000378E-04,
2460286.500000000, A.D. 2023-Dec-08 00:00:00.0000,  1.713446731369952E+01, -3.036213597985911E+01, -1.707382692361447E+00,  2.809977568375067E-03,  8.572609736690774E-04, -8.928239291114527E-04,  2.015949142798404E-01,  3.490507738197794E+01,  6.773681206873103E-04,
2460287.500000000, A.D. 2023-Dec-09 00:00:00.0000,  1.713728209750475E+01, -3.036127419150658E+01, -1.708276905449799E+00,  2.819602650335389E-03,  8.651555305971641E-04, -8.974836289362205E-04,  2.015988184511035E-01,  3.490575336827717E+01,  6.757124548034331E-04,
2460288.500000000, A.D. 2023-Dec-10 00:00:00.0000,  1.714010504260610E+01, -3.036040884587310E+01, -1.709180177987870E+00,  2.824942183620990E-03,  8.638274625716548E-04, -9.094542101909414E-04,  2.016027319504212E-01,  3.490643096967903E+01,  6.803351497051824E-04,
2460289.500000000, A.D. 2023-Dec-11 00:00:00.0000,  1.714292882900506E+01, -3.035954923852557E+01, -1.710094648625210E+00,  2.821128879255687E-03,  8.546552533649757E-04, -9.180426084659575E-04,  2.016066813298123E-01,  3.490711478352297E+01,  6.871207560042115E-04,
2460290.500000000, A.D. 2023-Dec-12 00:00:00.0000,  1.714574528368730E+01, -3.035869935397567E+01, -1.711012457366552E+00,  2.811460697022123E-03,  8.460094271583841E-04, -9.155821610216369E-04,  2.016106611945688E-01,  3.490780387574434E+01,  6.900295333816878E-04,
2460291.500000000, A.D. 2023-Dec-13 00:00:00.0000,  1.714855266627580E+01, -3.035785431802971E+01, -1.711922758998522E+00,  2.804451665069663E-03,  8.457876119768708E-04, -9.042558535101488E-04,  2.016146390392970E-01,  3.490849261820864E+01,  6.864806913251152E-04,
2460292.500000000, A.D. 2023-Dec-14 00:00:00.0000,  1.715135722058999E+01, -3.035700474227560E+01, -1.712821390235595E+00,  2.806249303086638E-03,  8.543805428255893E-04, -8.941527739870564E-04,  2.016185842314211E-01,  3.490917570704980E+01,  6.796515120704595E-04,
2460293.500000000, A.D. 2023-Dec-15 00:00:00.0000,  1.715416761085800E+01, -3.035614509578695E+01, -1.713714588870765E+00,  2.815147177690097E-03,  8.643118661477091E-04, -8.942806101773171E-04,  2.016224953461045E-01,  3.490985289556500E+01,  6.756508518470768E-04,
2460294.500000000, A.D. 2023-Dec-16 00:00:00.0000,  1.715698718818182E+01, -3.035527864639595E+01, -1.714613433180745E+00,  2.823096649758272E-03,  8.669052572762477E-04, -9.045155481891798E-04,  2.016264014603959E-01,  3.491052921828916E+01,  6.780641097614870E-04,
2460295.500000000, A.D. 2023-Dec-17 00:00:00.0000,  1.715981099743782E+01, -3.035441454400092E+01, -1.715523950402302E+00,  2.822898489836968E-03,  8.600385074966163E-04, -9.157103022975668E-04,  2.016303361844641E-01,  3.491121049464264E+01,  6.847474432056408E-04,
2460296.500000000, A.D. 2023-Dec-18 00:00:00.0000,  1.716263020448170E+01, -3.035355965179716E+01, -1.716441741720866E+00,  2.814627526681040E-03,  8.500290197731022E-04, -9.178706542739566E-04,  2.016343076585854E-01,  3.491189813407053E+01,  6.897498456933344E-04,
2460297.500000000, A.D. 2023-Dec-19 00:00:00.0000,  1.716543997571000E+01, -3.035271242939568E+01, -1.717355913294106E+00,  2.805553087744489E-03,  8.459901332575787E-04, -9.090616701279132E-04,  2.016382913183240E-01,  3.491258788337267E+01,  6.886238398748328E-04,
2460298.500000000, A.D. 2023-Dec-20 00:00:00.0000,  1.716824378485624E+01, -3.035186430839389E+01, -1.718258787693419E+00,  2.803661714500127E-03,  8.517146703013100E-04, -8.971255183776905E-04,  2.016422518067482E-01,  3.491327362068609E+01,  6.823855524637196E-04,
2460299.500000000, A.D. 2023-Dec-21 00:00:00.0000,  1.717105031975611E+01, -3.035100732951032E+01, -1.719152752034505E+00,  2.810538881254005E-03,  8.622883178940078E-04, -8.927016977534331E-04,  2.016461745073125E-01,  3.491395281523439E+01,  6.766141950338626E-04,
2460300.500000000, A.D. 2023-Dec-22 00:00:00.0000,  1.717386573258215E+01, -3.035014124739734E+01, -1.720048136509747E+00,  2.819941413144718E-03,  8.684622488548799E-04, -8.997308967256852E-04,  2.016500786108167E-01,  3.491462878980156E+01,  6.764764384804137E-04,
2460301.500000000, A.D. 2023-Dec-23 00:00:00.0000,  1.717668814480335E+01, -3.034927375336968E+01, -1.720953993332143E+00,  2.823370653535936E-03,  8.649161900241069E-04, -9.119262986659757E-04,  2.016539999868995E-01,  3.491530775502298E+01,  6.821066101042996E-04,
2460302.500000000, A.D. 2023-Dec-24 00:00:00.0000,  1.717950932720203E+01, -3.034841360672921E+01, -1.721870016904326E+00,  2.817664795370491E-03,  8.550070828245184E-04, -9.183967477968455E-04,  2.016579591492803E-01,  3.491599326273911E+01,  6.884910788450147E-04,
2460303.500000000, A.D. 2023-Dec-25 00:00:00.0000,  1.718232204465244E+01, -3.034756282202546E+01, -1.722786824817200E+00,  2.807808069626253E-03,  8.477605791566002E-04, -9.133648542866910E-04,  2.016619429713943E-01,  3.491668304015568E+01,  6.899489269187280E-04,
2460304.500000000, A.D. 2023-Dec-26 00:00:00.0000,  1.718512650409234E+01, -3.034671487761302E+01, -1.723694325777987E+00,  2.802482678598844E-03,  8.498272819864505E-04, -9.013052945320105E-04,  2.016659164120253E-01,  3.491737102007417E+01,  6.851927066276796E-04,
2460305.500000000, A.D. 2023-Dec-27 00:00:00.0000,  1.718793017175308E+01, -3.034586052771425E+01, -1.724590715795733E+00,  2.806335833614770E-03,  8.595568378941271E-04, -8.929632473014396E-04,  2.016698537591636E-01,  3.491805275059814E+01,  6.784773688079704E-04,
2460306.500000000, A.D. 2023-Dec-28 00:00:00.0000,  1.719074111753756E+01, -3.034499604979238E+01, -1.725484094972002E+00,  2.815825578745761E-03,  8.684563820117699E-04, -8.957761531473489E-04,  2.016737615851702E-01,  3.491872936969662E+01,  6.758112624849670E-04,
2460307.500000000, A.D. 2023-Dec-29 00:00:00.0000,  1.719356080971614E+01, -3.034412657247488E+01, -1.726385241975952E+00,  2.822374369732616E-03,  8.687706879531876E-04, -9.072220927084180E-04,  2.016776728974856E-01,  3.491940659243075E+01,  6.795875068869219E-04,
2460308.500000000, A.D. 2023-Dec-30 00:00:00.0000,  1.719638280434958E+01, -3.034326149590042E+01, -1.727297990044817E+00,  2.820034475280678E-03,  8.604120618546036E-04, -9.170745412497963E-04,  2.016816176563365E-01,  3.492008960625296E+01,  6.864456951117980E-04,
2460309.500000000, A.D. 2023-Dec-31 00:00:00.0000,  1.719919850050759E+01, -3.034240610199082E+01, -1.728215812617703E+00,  2.810790277537913E-03,  8.510264799670321E-04, -9.165384362503471E-04,  2.016855960412864E-01,  3.492077844225375E+01,  6.902802904644518E-04,
2460310.500000000, A.D. 2024-Jan-01 00:00:00.0000,  1.720200480910703E+01, -3.034155684939213E+01, -1.729127649734497E+00,  2.802777771251365E-03,  8.491704856823487E-04, -9.060818253230225E-04,  2.016895783177921E-01,  3.492146795205654E+01,  6.876851025800317E-04,
2460311.500000000, A.D. 2024-Jan-02 00:00:00.0000,  1.720480690561810E+01, -3.034070453100105E+01, -1.730027766523402E+00,  2.803037901159565E-03,  8.566912505042142E-04, -8.950168923700578E-04,  2.016935313529227E-01,  3.492215239887218E+01,  6.809864849227592E-04,
2460312.500000000, A.D. 2024-Jan-03 00:00:00.0000,  1.720761361957077E+01, -3.033984248220850E+01, -1.730920871998039E+00,  2.811236335984388E-03,  8.670701088188511E-04, -8.932080911681549E-04,  2.016974481732863E-01,  3.492283057529529E+01,  6.761757360260216E-04,
2460313.500000000, A.D. 2024-Jan-04 00:00:00.0000,  1.721042955544265E+01, -3.033897253280709E+01, -1.731817924418505E+00,  2.819949102165274E-03,  8.712310226396904E-04, -9.022610204680937E-04,  2.017013542128774E-01,  3.492350688508549E+01,  6.775617692910006E-04,
